ONEWEB-0668             
1 56711U 23068B   25355.14004347  .00000025  00000+0  32791-4 0  9994
2 56711  87.9064 264.2089 0001176  85.4841 274.6425 13.16596472128355
ONEWEB-0676             
1 56712U 23068C   25355.22397811  .00000039  00000+0  67788-4 0  9994
2 56712  87.9052 264.2128 0001888  83.0501 277.0845 13.16595947128285
ONEWEB-0677             
1 56713U 23068D   25355.15827353  .00000039  00000+0  63600-4 0  9995
2 56713  87.9217 309.9396 0001910  85.9619 274.1732 13.20772168126301
ONEWEB-0678             
1 56714U 23068E   25354.88161155 -.00000268  00000+0 -74500-3 0  9992
2 56714  87.9010 294.7644 0002080  71.4244 288.7112 13.15549014125840
ONEWEB-0679             
1 56715U 23068F   25355.25878111  .00000003  00000+0 -26101-4 0  9993
2 56715  87.9035 264.1899 0001516  94.6940 265.4364 13.16595733128310
ONEWEB-0680             
1 56716U 23068G   25355.21012267  .00000086  00000+0  17758-3 0  9999
2 56716  87.9228 279.4593 0001301  91.5660 268.5623 13.21826516127584
ONEWEB-0681             
1 56717U 23068H   25355.18956022  .00000112  00000+0  23940-3 0  9992
2 56717  87.9225 279.4786 0002676  90.7315 269.4126 13.21826385127571
ONEWEB-0682             
1 56718U 23068J   25355.21198948  .00000149  00000+0  36074-3 0  9994
2 56718  87.9001 294.7121 0001458  89.5310 270.5988 13.15547537126058
